<?xml version="1.0" encoding="UTF-8"?>
<ndm xmlns:xsi="http://www.w3.org/2001/XMLSchema-instance" xsi:noNamespaceSchemaLocation="https://sanaregistry.org/r/ndmxml_unqualified/ndmxml-2.0.0-master-2.0.xsd">
<omm id="CCSDS_OMM_VERS" version="2.0">
<header><CREATION_DATE/><ORIGINATOR/></header><body><segment><metadata><OBJECT_NAME>KUIPER-00044</OBJECT_NAME><OBJECT_ID>2025-134F</OBJECT_ID><CENTER_NAME>EARTH</CENTER_NAME><REF_FRAME>TEME</REF_FRAME><TIME_SYSTEM>UTC</TIME_SYSTEM><MEAN_ELEMENT_THEORY>SGP4</MEAN_ELEMENT_THEORY></metadata><data><meanElements><EPOCH>2025-07-27T22:00:01.999584</EPOCH><MEAN_MOTION>15.18162628</MEAN_MOTION><ECCENTRICITY>.0011859</ECCENTRICITY><INCLINATION>51.8715</INCLINATION><RA_OF_ASC_NODE>165.9620</RA_OF_ASC_NODE><ARG_OF_PERICENTER>238.5034</ARG_OF_PERICENTER><MEAN_ANOMALY>96.0270</MEAN_ANOMALY></meanElements><tleParameters><EPHEMERIS_TYPE>0</EPHEMERIS_TYPE><CLASSIFICATION_TYPE>U</CLASSIFICATION_TYPE><NORAD_CAT_ID>64505</NORAD_CAT_ID><ELEMENT_SET_NO>999</ELEMENT_SET_NO><REV_AT_EPOCH>604</REV_AT_EPOCH><BSTAR>-.66018E-1</BSTAR><MEAN_MOTION_DOT>-.1254169E-1</MEAN_MOTION_DOT><MEAN_MOTION_DDOT>0</MEAN_MOTION_DDOT></tleParameters></data></segment></body></omm>
<omm id="CCSDS_OMM_VERS" version="2.0">
<header><CREATION_DATE/><ORIGINATOR/></header><body><segment><metadata><OBJECT_NAME>KUIPER-00046</OBJECT_NAME><OBJECT_ID>2025-134G</OBJECT_ID><CENTER_NAME>EARTH</CENTER_NAME><REF_FRAME>TEME</REF_FRAME><TIME_SYSTEM>UTC</TIME_SYSTEM><MEAN_ELEMENT_THEORY>SGP4</MEAN_ELEMENT_THEORY></metadata><data><meanElements><EPOCH>2025-07-27T22:00:01.999584</EPOCH><MEAN_MOTION>15.27131040</MEAN_MOTION><ECCENTRICITY>.0008219</ECCENTRICITY><INCLINATION>51.8722</INCLINATION><RA_OF_ASC_NODE>165.3041</RA_OF_ASC_NODE><ARG_OF_PERICENTER>245.7159</ARG_OF_PERICENTER><MEAN_ANOMALY>51.9986</MEAN_ANOMALY></meanElements><tleParameters><EPHEMERIS_TYPE>0</EPHEMERIS_TYPE><CLASSIFICATION_TYPE>U</CLASSIFICATION_TYPE><NORAD_CAT_ID>64506</NORAD_CAT_ID><ELEMENT_SET_NO>999</ELEMENT_SET_NO><REV_AT_EPOCH>606</REV_AT_EPOCH><BSTAR>-.43141E-1</BSTAR><MEAN_MOTION_DOT>-.1068814E-1</MEAN_MOTION_DOT><MEAN_MOTION_DDOT>0</MEAN_MOTION_DDOT></tleParameters></data></segment></body></omm>
<omm id="CCSDS_OMM_VERS" version="2.0">
<header><CREATION_DATE/><ORIGINATOR/></header><body><segment><metadata><OBJECT_NAME>KUIPER-00047</OBJECT_NAME><OBJECT_ID>2025-134H</OBJECT_ID><CENTER_NAME>EARTH</CENTER_NAME><REF_FRAME>TEME</REF_FRAME><TIME_SYSTEM>UTC</TIME_SYSTEM><MEAN_ELEMENT_THEORY>SGP4</MEAN_ELEMENT_THEORY></metadata><data><meanElements><EPOCH>2025-07-27T14:08:05.705088</EPOCH><MEAN_MOTION>15.34271874</MEAN_MOTION><ECCENTRICITY>.0009788</ECCENTRICITY><INCLINATION>51.8624</INCLINATION><RA_OF_ASC_NODE>166.7135</RA_OF_ASC_NODE><ARG_OF_PERICENTER>248.9897</ARG_OF_PERICENTER><MEAN_ANOMALY>111.0041</MEAN_ANOMALY></meanElements><tleParameters><EPHEMERIS_TYPE>0</EPHEMERIS_TYPE><CLASSIFICATION_TYPE>U</CLASSIFICATION_TYPE><NORAD_CAT_ID>64507</NORAD_CAT_ID><ELEMENT_SET_NO>999</ELEMENT_SET_NO><REV_AT_EPOCH>602</REV_AT_EPOCH><BSTAR>.42703E-3</BSTAR><MEAN_MOTION_DOT>.14049E-3</MEAN_MOTION_DOT><MEAN_MOTION_DDOT>0</MEAN_MOTION_DDOT></tleParameters></data></segment></body></omm>
<omm id="CCSDS_OMM_VERS" version="2.0">
<header><CREATION_DATE/><ORIGINATOR/></header><body><segment><metadata><OBJECT_NAME>KUIPER-00048</OBJECT_NAME><OBJECT_ID>2025-134J</OBJECT_ID><CENTER_NAME>EARTH</CENTER_NAME><REF_FRAME>TEME</REF_FRAME><TIME_SYSTEM>UTC</TIME_SYSTEM><MEAN_ELEMENT_THEORY>SGP4</MEAN_ELEMENT_THEORY></metadata><data><meanElements><EPOCH>2025-07-27T14:38:53.550528</EPOCH><MEAN_MOTION>15.36370586</MEAN_MOTION><ECCENTRICITY>.000201</ECCENTRICITY><INCLINATION>51.8772</INCLINATION><RA_OF_ASC_NODE>166.1526</RA_OF_ASC_NODE><ARG_OF_PERICENTER>212.0686</ARG_OF_PERICENTER><MEAN_ANOMALY>148.0178</MEAN_ANOMALY></meanElements><tleParameters><EPHEMERIS_TYPE>0</EPHEMERIS_TYPE><CLASSIFICATION_TYPE>U</CLASSIFICATION_TYPE><NORAD_CAT_ID>64508</NORAD_CAT_ID><ELEMENT_SET_NO>999</ELEMENT_SET_NO><REV_AT_EPOCH>603</REV_AT_EPOCH><BSTAR>.85772E-3</BSTAR><MEAN_MOTION_DOT>.30635E-3</MEAN_MOTION_DOT><MEAN_MOTION_DDOT>0</MEAN_MOTION_DDOT></tleParameters></data></segment></body></omm>
<omm id="CCSDS_OMM_VERS" version="2.0">
<header><CREATION_DATE/><ORIGINATOR/></header><body><segment><metadata><OBJECT_NAME>KUIPER-00049</OBJECT_NAME><OBJECT_ID>2025-134K</OBJECT_ID><CENTER_NAME>EARTH</CENTER_NAME><REF_FRAME>TEME</REF_FRAME><TIME_SYSTEM>UTC</TIME_SYSTEM><MEAN_ELEMENT_THEORY>SGP4</MEAN_ELEMENT_THEORY></metadata><data><meanElements><EPOCH>2025-07-27T12:01:00.932736</EPOCH><MEAN_MOTION>15.35423842</MEAN_MOTION><ECCENTRICITY>.0006703</ECCENTRICITY><INCLINATION>51.8706</INCLINATION><RA_OF_ASC_NODE>166.9028</RA_OF_ASC_NODE><ARG_OF_PERICENTER>230.6349</ARG_OF_PERICENTER><MEAN_ANOMALY>129.4043</MEAN_ANOMALY></meanElements><tleParameters><EPHEMERIS_TYPE>0</EPHEMERIS_TYPE><CLASSIFICATION_TYPE>U</CLASSIFICATION_TYPE><NORAD_CAT_ID>64509</NORAD_CAT_ID><ELEMENT_SET_NO>999</ELEMENT_SET_NO><REV_AT_EPOCH>647</REV_AT_EPOCH><BSTAR>.72038E-3</BSTAR><MEAN_MOTION_DOT>.24886E-3</MEAN_MOTION_DOT><MEAN_MOTION_DDOT>0</MEAN_MOTION_DDOT></tleParameters></data></segment></body></omm>
<omm id="CCSDS_OMM_VERS" version="2.0">
<header><CREATION_DATE/><ORIGINATOR/></header><body><segment><metadata><OBJECT_NAME>KUIPER-00050</OBJECT_NAME><OBJECT_ID>2025-134L</OBJECT_ID><CENTER_NAME>EARTH</CENTER_NAME><REF_FRAME>TEME</REF_FRAME><TIME_SYSTEM>UTC</TIME_SYSTEM><MEAN_ELEMENT_THEORY>SGP4</MEAN_ELEMENT_THEORY></metadata><data><meanElements><EPOCH>2025-07-27T10:32:25.920096</EPOCH><MEAN_MOTION>15.35025592</MEAN_MOTION><ECCENTRICITY>.0007007</ECCENTRICITY><INCLINATION>51.8720</INCLINATION><RA_OF_ASC_NODE>167.2417</RA_OF_ASC_NODE><ARG_OF_PERICENTER>224.6278</ARG_OF_PERICENTER><MEAN_ANOMALY>135.4144</MEAN_ANOMALY></meanElements><tleParameters><EPHEMERIS_TYPE>0</EPHEMERIS_TYPE><CLASSIFICATION_TYPE>U</CLASSIFICATION_TYPE><NORAD_CAT_ID>64510</NORAD_CAT_ID><ELEMENT_SET_NO>999</ELEMENT_SET_NO><REV_AT_EPOCH>646</REV_AT_EPOCH><BSTAR>.44954E-3</BSTAR><MEAN_MOTION_DOT>.15168E-3</MEAN_MOTION_DOT><MEAN_MOTION_DDOT>0</MEAN_MOTION_DDOT></tleParameters></data></segment></body></omm>
<omm id="CCSDS_OMM_VERS" version="2.0">
<header><CREATION_DATE/><ORIGINATOR/></header><body><segment><metadata><OBJECT_NAME>KUIPER-00051</OBJECT_NAME><OBJECT_ID>2025-134M</OBJECT_ID><CENTER_NAME>EARTH</CENTER_NAME><REF_FRAME>TEME</REF_FRAME><TIME_SYSTEM>UTC</TIME_SYSTEM><MEAN_ELEMENT_THEORY>SGP4</MEAN_ELEMENT_THEORY></metadata><data><meanElements><EPOCH>2025-07-27T11:51:57.281472</EPOCH><MEAN_MOTION>15.35547569</MEAN_MOTION><ECCENTRICITY>.0005116</ECCENTRICITY><INCLINATION>51.8730</INCLINATION><RA_OF_ASC_NODE>166.8674</RA_OF_ASC_NODE><ARG_OF_PERICENTER>221.0073</ARG_OF_PERICENTER><MEAN_ANOMALY>139.0529</MEAN_ANOMALY></meanElements><tleParameters><EPHEMERIS_TYPE>0</EPHEMERIS_TYPE><CLASSIFICATION_TYPE>U</CLASSIFICATION_TYPE><NORAD_CAT_ID>64511</NORAD_CAT_ID><ELEMENT_SET_NO>999</ELEMENT_SET_NO><REV_AT_EPOCH>647</REV_AT_EPOCH><BSTAR>.76619E-3</BSTAR><MEAN_MOTION_DOT>.26598E-3</MEAN_MOTION_DOT><MEAN_MOTION_DDOT>0</MEAN_MOTION_DDOT></tleParameters></data></segment></body></omm>
<omm id="CCSDS_OMM_VERS" version="2.0">
<header><CREATION_DATE/><ORIGINATOR/></header><body><segment><metadata><OBJECT_NAME>KUIPER-00052</OBJECT_NAME><OBJECT_ID>2025-134N</OBJECT_ID><CENTER_NAME>EARTH</CENTER_NAME><REF_FRAME>TEME</REF_FRAME><TIME_SYSTEM>UTC</TIME_SYSTEM><MEAN_ELEMENT_THEORY>SGP4</MEAN_ELEMENT_THEORY></metadata><data><meanElements><EPOCH>2025-07-27T22:00:01.999584</EPOCH><MEAN_MOTION>15.40132230</MEAN_MOTION><ECCENTRICITY>.0002904</ECCENTRICITY><INCLINATION>51.8753</INCLINATION><RA_OF_ASC_NODE>164.4179</RA_OF_ASC_NODE><ARG_OF_PERICENTER>243.6590</ARG_OF_PERICENTER><MEAN_ANOMALY>137.2056</MEAN_ANOMALY></meanElements><tleParameters><EPHEMERIS_TYPE>0</EPHEMERIS_TYPE><CLASSIFICATION_TYPE>U</CLASSIFICATION_TYPE><NORAD_CAT_ID>64512</NORAD_CAT_ID><ELEMENT_SET_NO>999</ELEMENT_SET_NO><REV_AT_EPOCH>608</REV_AT_EPOCH><BSTAR>.60095E-3</BSTAR><MEAN_MOTION_DOT>.24146E-3</MEAN_MOTION_DOT><MEAN_MOTION_DDOT>0</MEAN_MOTION_DDOT></tleParameters></data></segment></body></omm>

</ndm>
