KUIPER-00044            
1 64505U 25134F   25208.91668981 -.01254169  00000+0 -66018-1 0  9991
2 64505  51.8715 165.9620 0011859 238.5034  96.0270 15.18162628  6041
KUIPER-00046            
1 64506U 25134G   25208.91668981 -.01068814  00000+0 -43141-1 0  9994
2 64506  51.8722 165.3041 0008219 245.7159  51.9986 15.27131040  6065
KUIPER-00047            
1 64507U 25134H   25208.58895492  .00014049  00000+0  42703-3 0  9990
2 64507  51.8624 166.7135 0009788 248.9897 111.0041 15.34271874  6026
KUIPER-00048            
1 64508U 25134J   25208.61034202  .00030635  00000+0  85772-3 0  9991
2 64508  51.8772 166.1526 0002010 212.0686 148.0178 15.36370586  6032
KUIPER-00049            
1 64509U 25134K   25208.50070524  .00024886  00000+0  72038-3 0  9999
2 64509  51.8706 166.9028 0006703 230.6349 129.4043 15.35423842  6475
KUIPER-00050            
1 64510U 25134L   25208.43918889  .00015168  00000+0  44954-3 0  9997
2 64510  51.8720 167.2417 0007007 224.6278 135.4144 15.35025592  6469
KUIPER-00051            
1 64511U 25134M   25208.49441298  .00026598  00000+0  76619-3 0  9991
2 64511  51.8730 166.8674 0005116 221.0073 139.0529 15.35547569  6475
KUIPER-00052            
1 64512U 25134N   25208.91668981  .00024146  00000+0  60095-3 0  9997
2 64512  51.8753 164.4179 0002904 243.6590 137.2056 15.40132230  6084
